GALAXY 16               
1 29236C 06023A   20286.00000000 -.00000037  00000-0  00000-0 0  2861
2 29236   0.0313 264.9233 0002641 303.2856  73.8659  1.00269708    12
GALAXY 16               
1 29236C 06023A   20289.00000000 -.00000037  00000-0  00000-0 0  2897
2 29236   0.0257 261.9142 0002505 304.2065  78.8895  1.00268952    14
GALAXY 16           [PM]
1 29236C 06023A   20289.00041667 -.00000037  00000-0  00000-0 0  2891
2 29236   0.0257 261.8469 0002465 299.8585  83.4553  1.00271868    19
GALAXY 17               
1 31307C 07016B   20286.00000000 -.00000121  00000-0  00000-0 0  2860
2 31307   0.0028 259.8206 0003578 312.6738  77.5694  1.00270446    14
GALAXY 17           [PM]
1 31307C 07016B   20288.48049769 -.00000220  00000-0  00000-0 0  2881
2 31307   0.0027 263.0818 0003485 307.0524 255.3520  1.00271317    19
GALAXY 17               
1 31307C 07016B   20289.00000000 -.00000131  00000-0  00000-0 0  2897
2 31307   0.0000 266.0017 0003384 302.8405  84.1779  1.00271496    15
INTELSAT 11             
1 32253C 07044B   20286.00000000 -.00000178  00000-0  00000-0 0  2864
2 32253   0.0226 256.0562 0002387 352.2910  89.7355  1.00270582    18
INTELSAT 11         [PM]
1 32253C 07044B   20288.86556713 -.00000178  00000-0  00000-0 0  2889
2 32253   0.0167 251.5990 0002019 355.3546  45.5460  1.00272019    12
INTELSAT 11             
1 32253C 07044B   20289.00000000 -.00000178  00000-0  00000-0 0  2890
2 32253   0.0162 251.7958 0002048 354.7209  94.5117  1.00271981    14
HORIZONS 2              
1 32388C 07063B   20286.00000000 -.00000093  00000-0  00000-0 0  2860
2 32388   0.0224 265.0246 0002177 304.5803 256.3134  1.00269984    13
HORIZONS 2          [PM]
1 32388C 07063B   20288.61537037 -.00000093  00000-0  00000-0 0  2886
2 32388   0.0178 261.0144 0002087 299.4268 129.5715  1.00271441    18
HORIZONS 2              
1 32388C 07063B   20289.00000000 -.00000093  00000-0  00000-0 0  2896
2 32388   0.0170 261.5891 0002088 299.0507 268.2181  1.00271373    19
GALAXY 18               
1 32951C 08024A   20286.00000000  .00000115  00000-0  00000-0 0  2868
2 32951   0.0121 146.6744 0002874  53.9715  57.4175  1.00274608    17
GALAXY 18               
1 32951C 08024A   20289.00000000  .00000115  00000-0  00000-0 0  2894
2 32951   0.0184 252.7922 0002749 299.3898  68.8440  1.00271103    10
GALAXY 18           [PM]
1 32951C 08024A   20289.07986111  .00000115  00000-0  00000-0 0  2897
2 32951   0.0183 253.2773 0002761 300.8129  95.7643  1.00269848    15
INTELSAT 25             
1 33153C 08034A   20286.00000000 -.00000133  00000-0  00000-0 0  2865
2 33153   0.0149 175.5061 0002573  39.8519 134.2189  1.00270942    12
INTELSAT 25         [PM]
1 33153C 08034A   20288.84427083 -.00000134  00000-0  00000-0 0  2886
2 33153   0.0263 241.3613 0002502 327.7276  87.2098  1.00272323    16
INTELSAT 25             
1 33153C 08034A   20289.00000000 -.00000132  00000-0  00000-0 0  2890
2 33153   0.0257 241.2730 0002532 328.2540 142.9884  1.00272210    18
GALAXY 19           [PM]
1 33376C 08045A   20281.42361111 -.00000049  00000-0  00000-0 0  2819
2 33376   0.0160 260.5141 0003253 308.7970 222.7386  1.00273010    12
GALAXY 19               
1 33376C 08045A   20286.00000000 -.00000053  00000-0  00000-0 0  2865
2 33376   0.0052 214.7400 0003152   1.8674  67.4624  1.00270795    17
GALAXY 19               
1 33376C 08045A   20289.00000000 -.00000068  00000-0  00000-0 0  2897
2 33376   0.0016 206.5841 0002977   7.9420  72.4923  1.00270091    12
GALAXY 19           [PM]
1 33376C 08045A   20290.99444444 -.00000114  00000-0  00000-0 0  2905
2 33376   0.0063 244.8104 0002844 318.7105  83.4686  1.00272078    12
INTELSAT 14             
1 36097C 09064A   20286.00000000 -.00000183  00000-0  00000-0 0  2864
2 36097   0.0112 155.7878 0002522  59.4799 120.8032  1.00270624    15
INTELSAT 14         [PM]
1 36097C 09064A   20288.85277778 -.00000183  00000-0  00000-0 0  2889
2 36097   0.0204 252.8113 0002255 315.3106  77.7486  1.00272443    11
INTELSAT 14             
1 36097C 09064A   20289.00000000 -.00000183  00000-0  00000-0 0  2890
2 36097   0.0198 252.8949 0002290 315.1550 130.9664  1.00272336    11
INTELSAT 15             
1 36106C 09067A   20286.00000000 -.00000107  00000-0  00000-0 0  2864
2 36106   0.0051 239.2443 0002261 336.3222 250.6505  1.00270338    11
INTELSAT 15         [PM]
1 36106C 09067A   20288.51502315 -.00000180  00000-0  00000-0 0  2881
2 36106   0.0000 229.6075 0002041 336.9964  87.4893  1.00271790    13
INTELSAT 15             
1 36106C 09067A   20289.00000000 -.00000099  00000-0  00000-0 0  2890
2 36106   0.0000 232.4262 0002061 334.1779 262.5588  1.00271678    11
INTELSAT 16             
1 36397C 10006A   20286.00000000 -.00000155  00000-0  00000-0 0  2864
2 36397   0.0063 233.7284 0002139 338.4898  92.6501  1.00270430    17
INTELSAT 16         [PM]
1 36397C 10006A   20288.89548611 -.00000219  00000-0  00000-0 0  2881
2 36397   0.0008 224.5598 0001847 336.3976  69.1251  1.00272603    16
INTELSAT 16             
1 36397C 10006A   20289.00000000 -.00001773  00000-0  00000-0 0  2897
2 36397   0.0006 224.9883 0001864 336.1626 106.6601  1.00272580    14
INTELSAT 17             
1 37238C 10065B   20286.00000000  .00000088  00000-0  00000-0 0  2868
2 37238   0.0198 217.1697 0002598 354.7801 235.1129  1.00270935    19
INTELSAT 17         [PM]
1 37238C 10065B   20288.04348380  .00000088  00000-0  00000-0 0  2882
2 37238   0.0178 212.1698 0002420 356.3720 256.1927  1.00269295    11
INTELSAT 17             
1 37238C 10065B   20289.00000000  .00000088  00000-0  00000-0 0  2894
2 37238   0.0159 210.7014 0002397 355.6237 243.6915  1.00269568    15
INTELSAT NEW DAWN       
1 37392C 11016A   20286.00000000  .00000246  00000-0  00000-0 0  2862
2 37392   0.0171 188.9855 0001103  46.7835 178.1136  1.00270120    18
INTELSAT NEW DAWN   [PM]
1 37392C 11016A   20286.37224537  .00000246  00000-0  00000-0 0  2865
2 37392   0.0173 188.5438 0001011  50.8367 308.8776  1.00270342    15
INTELSAT NEW DAWN       
1 37392C 11016A   20289.00000000  .00000250  00000-0  00000-0 0  2893
2 37392   0.0167 182.3112 0000873  49.4536 185.0715  1.00271322    13
INTELSAT NEW DAWN   [PM]
1 37392C 11016A   20293.12440972  .00000246  00000-0  00000-0 0  2937
2 37392   0.0158 232.0697 0000868 321.0811 272.5214  1.00270405    10
INTELSAT 18             
1 37834C 11056A   20286.00000000  .00000143  00000-0  00000-0 0  2863
2 37834   0.0240 116.3094 0002063  91.8018 352.9575  1.00271586    12
INTELSAT 18         [PM]
1 37834C 11056A   20288.89711806  .00000146  00000-0  00000-0 0  2880
2 37834   0.0093 243.7114 0001655 313.7493 329.3990  1.00270672    19
INTELSAT 18             
1 37834C 11056A   20289.00000000  .00000150  00000-0  00000-0 0  2897
2 37834   0.0090 243.6506 0001643 312.3292   8.0187  1.00270687    14
INTELSAT 22             
1 38098C 12011A   20286.00000000 -.00000056  00000-0  00000-0 0  2862
2 38098   0.0059 222.8040 0003406 357.7995 232.5630  1.00269661    13
INTELSAT 22         [PM]
1 38098C 12011A   20287.97331019  .00000034  00000-0  00000-0 0  2872
2 38098   0.0033 199.9564 0002608 353.4603 252.0905  1.00270369    11
INTELSAT 22         [PM]
1 38098C 12011A   20288.93284722  .00000043  00000-0  00000-0 0  2888
2 38098   0.0018 216.6279 0002587 344.4292 230.8241  1.00270308    14
INTELSAT 22             
1 38098C 12011A   20289.00000000  .00000052  00000-0  00000-0 0  2893
2 38098   0.0012 216.0647 0002582 344.8074 255.2515  1.00270542    13
INTELSAT 19             
1 38356C 12030A   20286.00000000 -.00000026  00000-0  00000-0 0  2867
2 38356   0.0027 211.3302 0002893 354.4922 341.2426  1.00271356    17
INTELSAT 19         [PM]
1 38356C 12030A   20286.68633102  .00000034  00000-0  00000-0 0  2864
2 38356   0.0025 206.7123 0002915 358.9640 229.1452  1.00271020    16
INTELSAT 19             
1 38356C 12030A   20289.00000000 -.00000104  00000-0  00000-0 0  2890
2 38356   0.0000 199.2300 0002710   2.6328 348.1595  1.00271053    17
INTELSAT 20             
1 38740C 12043A   20286.00000000  .00000065  00000-0  00000-0 0  2860
2 38740   0.0126 183.0870 0002197  10.4102 256.0695  1.00269737    16
INTELSAT 20             
1 38740C 12043A   20289.00000000  .00000067  00000-0  00000-0 0  2898
2 38740   0.0106 195.3764 0002272 347.5657 269.5774  1.00269841    18
INTELSAT 20         [PM]
1 38740C 12043A   20289.75208333  .00000083  00000-0  00000-0 0  2897
2 38740   0.0145 172.6808 0002085 353.1596 198.1625  1.00271444    19
INTELSAT 21             
1 38749C 12045A   20286.00000000 -.00000194  00000-0  00000-0 0  2865
2 38749   0.0047 213.2536 0002286 357.0311 112.7920  1.00269765    13
INTELSAT 21         [PM]
1 38749C 12045A   20288.85673611 -.00000195  00000-0  00000-0 0  2887
2 38749   0.0194 253.4830 0002162 303.5605  77.2405  1.00272938    13
INTELSAT 21             
1 38749C 12045A   20289.00000000 -.00000195  00000-0  00000-0 0  2892
2 38749   0.0190 253.8137 0002191 303.1955 128.9919  1.00272876    14
INTELSAT 23             
1 38867C 12057A   20286.00000000 -.00000195  00000-0  00000-0 0  2860
2 38867   0.0151 151.7768 0001711  56.9439 119.3634  1.00270676    19
INTELSAT 23         [PM]
1 38867C 12057A   20287.50260417 -.00000195  00000-0  00000-0 0  2877
2 38867   0.0235 245.6205 0001654 321.3269 303.5523  1.00269553    13
INTELSAT 23             
1 38867C 12057A   20289.00000000 -.00000195  00000-0  00000-0 0  2896
2 38867   0.0199 245.5361 0001646 314.4580 131.0333  1.00269068    18
INTELSAT 30             
1 40271C 14062A   20286.00000000 -.00000061  00000-0  00000-0 0  2862
2 40271   0.0070 232.5503 0001837 218.0682 195.3988  1.00269832    14
INTELSAT 30         [PM]
1 40271C 14062A   20288.37590278 -.00000063  00000-0  00000-0 0  2889
2 40271   0.0082 222.3085 0002170 211.5682 349.7945  1.00272067    10
